[{"OBJECT_NAME":"SL-14 R/B","OBJECT_ID":"1986-006B","EPOCH":"2026-03-13T11:47:07.770624","MEAN_MOTION":14.86821156,"ECCENTRICITY":0.00750644,"INCLINATION":82.5236,"RA_OF_ASC_NODE":256.1584,"ARG_OF_PERICENTER":259.9358,"MEAN_ANOMALY":99.3384,"EPHEMERIS_TYPE":0,"CLASSIFICATION_TYPE":"U","NORAD_CAT_ID":16496,"ELEMENT_SET_NO":999,"REV_AT_EPOCH":14977,"BSTAR":8.7877601e-5,"MEAN_MOTION_DOT":8.5e-6,"MEAN_MOTION_DDOT":0},{"OBJECT_NAME":"COSMOS 1743","OBJECT_ID":"1986-034A","EPOCH":"2026-03-13T10:18:52.981632","MEAN_MOTION":15.58840822,"ECCENTRICITY":0.00015757,"INCLINATION":82.5293,"RA_OF_ASC_NODE":69.9044,"ARG_OF_PERICENTER":255.5119,"MEAN_ANOMALY":104.5962,"EPHEMERIS_TYPE":0,"CLASSIFICATION_TYPE":"U","NORAD_CAT_ID":16719,"ELEMENT_SET_NO":999,"REV_AT_EPOCH":18083,"BSTAR":0.00047127182,"MEAN_MOTION_DOT":0.00036558,"MEAN_MOTION_DDOT":0},{"OBJECT_NAME":"SL-14 R/B","OBJECT_ID":"1986-046B","EPOCH":"2026-03-13T10:40:04.442304","MEAN_MOTION":14.85594396,"ECCENTRICITY":0.00222167,"INCLINATION":82.4782,"RA_OF_ASC_NODE":76.6326,"ARG_OF_PERICENTER":212.3848,"MEAN_ANOMALY":147.6007,"EPHEMERIS_TYPE":0,"CLASSIFICATION_TYPE":"U","NORAD_CAT_ID":16792,"ELEMENT_SET_NO":999,"REV_AT_EPOCH":12696,"BSTAR":6.0769404e-5,"MEAN_MOTION_DOT":5.52e-6,"MEAN_MOTION_DDOT":0},{"OBJECT_NAME":"SL-14 R/B","OBJECT_ID":"1986-055B","EPOCH":"2026-03-13T14:15:23.061888","MEAN_MOTION":14.85646556,"ECCENTRICITY":0.00178666,"INCLINATION":82.5194,"RA_OF_ASC_NODE":123.0043,"ARG_OF_PERICENTER":323.1063,"MEAN_ANOMALY":201.7881,"EPHEMERIS_TYPE":0,"CLASSIFICATION_TYPE":"U","NORAD_CAT_ID":16882,"ELEMENT_SET_NO":999,"REV_AT_EPOCH":11994,"BSTAR":5.3995288e-5,"MEAN_MOTION_DOT":4.93e-6,"MEAN_MOTION_DDOT":0},{"OBJECT_NAME":"AJISAI (EGS)","OBJECT_ID":"1986-061A","EPOCH":"2026-03-13T14:09:17.454240","MEAN_MOTION":12.44515656,"ECCENTRICITY":0.00112806,"INCLINATION":50.0081,"RA_OF_ASC_NODE":81.3542,"ARG_OF_PERICENTER":297.0598,"MEAN_ANOMALY":219.9554,"EPHEMERIS_TYPE":0,"CLASSIFICATION_TYPE":"U","NORAD_CAT_ID":16908,"ELEMENT_SET_NO":999,"REV_AT_EPOCH":46848,"BSTAR":9.409128e-6,"MEAN_MOTION_DOT":-9.6e-7,"MEAN_MOTION_DDOT":0},{"OBJECT_NAME":"SL-14 R/B","OBJECT_ID":"1987-024B","EPOCH":"2026-03-13T11:26:11.873184","MEAN_MOTION":14.86136139,"ECCENTRICITY":0.00167786,"INCLINATION":82.5245,"RA_OF_ASC_NODE":89.2034,"ARG_OF_PERICENTER":246.287,"MEAN_ANOMALY":113.6587,"EPHEMERIS_TYPE":0,"CLASSIFICATION_TYPE":"U","NORAD_CAT_ID":17567,"ELEMENT_SET_NO":999,"REV_AT_EPOCH":8869,"BSTAR":6.0350614e-5,"MEAN_MOTION_DOT":5.54e-6,"MEAN_MOTION_DDOT":0},{"OBJECT_NAME":"COSMOS 1833","OBJECT_ID":"1987-027A","EPOCH":"2026-03-13T14:41:27.924000","MEAN_MOTION":14.13053773,"ECCENTRICITY":0.00240683,"INCLINATION":70.9214,"RA_OF_ASC_NODE":317.7755,"ARG_OF_PERICENTER":208.9899,"MEAN_ANOMALY":150.9887,"EPHEMERIS_TYPE":0,"CLASSIFICATION_TYPE":"U","NORAD_CAT_ID":17589,"ELEMENT_SET_NO":999,"REV_AT_EPOCH":1087,"BSTAR":-7.9238731e-5,"MEAN_MOTION_DOT":-1.96e-6,"MEAN_MOTION_DDOT":0},{"OBJECT_NAME":"SL-16 R/B","OBJECT_ID":"1987-027B","EPOCH":"2026-03-13T07:00:36.982944","MEAN_MOTION":14.17166575,"ECCENTRICITY":0.00032183,"INCLINATION":70.9994,"RA_OF_ASC_NODE":268.9033,"ARG_OF_PERICENTER":134.6822,"MEAN_ANOMALY":225.4565,"EPHEMERIS_TYPE":0,"CLASSIFICATION_TYPE":"U","NORAD_CAT_ID":17590,"ELEMENT_SET_NO":999,"REV_AT_EPOCH":1585,"BSTAR":4.3763064e-5,"MEAN_MOTION_DOT":4.0e-7,"MEAN_MOTION_DDOT":0},{"OBJECT_NAME":"SL-14 R/B","OBJECT_ID":"1987-038B","EPOCH":"2026-03-13T14:35:46.669920","MEAN_MOTION":14.85373134,"ECCENTRICITY":0.00199966,"INCLINATION":82.4994,"RA_OF_ASC_NODE":293.116,"ARG_OF_PERICENTER":147.9188,"MEAN_ANOMALY":212.325,"EPHEMERIS_TYPE":0,"CLASSIFICATION_TYPE":"U","NORAD_CAT_ID":17912,"ELEMENT_SET_NO":999,"REV_AT_EPOCH":7981,"BSTAR":5.5938675e-5,"MEAN_MOTION_DOT":5.07e-6,"MEAN_MOTION_DDOT":0},{"OBJECT_NAME":"COSMOS 1844","OBJECT_ID":"1987-041A","EPOCH":"2026-03-13T06:56:58.352064","MEAN_MOTION":14.1455152,"ECCENTRICITY":0.00302151,"INCLINATION":70.9002,"RA_OF_ASC_NODE":26.5819,"ARG_OF_PERICENTER":12.5342,"MEAN_ANOMALY":347.6524,"EPHEMERIS_TYPE":0,"CLASSIFICATION_TYPE":"U","NORAD_CAT_ID":17973,"ELEMENT_SET_NO":999,"REV_AT_EPOCH":409,"BSTAR":-3.6949547e-5,"MEAN_MOTION_DOT":-1.2e-6,"MEAN_MOTION_DDOT":0},{"OBJECT_NAME":"SL-14 R/B","OBJECT_ID":"1987-055B","EPOCH":"2026-03-13T05:56:35.638944","MEAN_MOTION":14.85634056,"ECCENTRICITY":0.00208479,"INCLINATION":82.5031,"RA_OF_ASC_NODE":345.6792,"ARG_OF_PERICENTER":6.2682,"MEAN_ANOMALY":353.8791,"EPHEMERIS_TYPE":0,"CLASSIFICATION_TYPE":"U","NORAD_CAT_ID":18153,"ELEMENT_SET_NO":999,"REV_AT_EPOCH":7046,"BSTAR":6.6647206e-5,"MEAN_MOTION_DOT":6.03e-6,"MEAN_MOTION_DDOT":0},{"OBJECT_NAME":"COSMOS 1867","OBJECT_ID":"1987-060A","EPOCH":"2026-03-13T15:11:28.030848","MEAN_MOTION":14.31503732,"ECCENTRICITY":0.00145385,"INCLINATION":65.0106,"RA_OF_ASC_NODE":295.6626,"ARG_OF_PERICENTER":278.8717,"MEAN_ANOMALY":81.0721,"EPHEMERIS_TYPE":0,"CLASSIFICATION_TYPE":"U","NORAD_CAT_ID":18187,"ELEMENT_SET_NO":999,"REV_AT_EPOCH":2050,"BSTAR":3.0625249e-5,"MEAN_MOTION_DOT":-1.9e-7,"MEAN_MOTION_DDOT":0},{"OBJECT_NAME":"SL-14 R/B","OBJECT_ID":"1988-001B","EPOCH":"2026-03-13T07:27:12.049632","MEAN_MOTION":14.85532783,"ECCENTRICITY":0.00170476,"INCLINATION":82.5157,"RA_OF_ASC_NODE":191.9553,"ARG_OF_PERICENTER":222.954,"MEAN_ANOMALY":137.0346,"EPHEMERIS_TYPE":0,"CLASSIFICATION_TYPE":"U","NORAD_CAT_ID":18749,"ELEMENT_SET_NO":999,"REV_AT_EPOCH":4256,"BSTAR":7.3049972e-5,"MEAN_MOTION_DOT":6.56e-6,"MEAN_MOTION_DDOT":0},{"OBJECT_NAME":"COSMOS 1933","OBJECT_ID":"1988-020A","EPOCH":"2026-03-13T11:33:23.609664","MEAN_MOTION":15.18023949,"ECCENTRICITY":0.00042303,"INCLINATION":82.5105,"RA_OF_ASC_NODE":247.1594,"ARG_OF_PERICENTER":169.6432,"MEAN_ANOMALY":190.489,"EPHEMERIS_TYPE":0,"CLASSIFICATION_TYPE":"U","NORAD_CAT_ID":18958,"ELEMENT_SET_NO":999,"REV_AT_EPOCH":5080,"BSTAR":0.00025686269,"MEAN_MOTION_DOT":5.255e-5,"MEAN_MOTION_DDOT":0},{"OBJECT_NAME":"SL-3 R/B","OBJECT_ID":"1988-032B","EPOCH":"2026-03-13T13:13:21.914976","MEAN_MOTION":15.19959874,"ECCENTRICITY":0.00247331,"INCLINATION":97.5195,"RA_OF_ASC_NODE":55.7882,"ARG_OF_PERICENTER":217.2349,"MEAN_ANOMALY":142.7172,"EPHEMERIS_TYPE":0,"CLASSIFICATION_TYPE":"U","NORAD_CAT_ID":19046,"ELEMENT_SET_NO":999,"REV_AT_EPOCH":5269,"BSTAR":0.00030221816,"MEAN_MOTION_DOT":6.484e-5,"MEAN_MOTION_DDOT":0},{"OBJECT_NAME":"SL-16 R/B","OBJECT_ID":"1988-039B","EPOCH":"2026-03-13T08:42:01.300320","MEAN_MOTION":14.19616171,"ECCENTRICITY":0.00229677,"INCLINATION":71.0138,"RA_OF_ASC_NODE":60.7806,"ARG_OF_PERICENTER":328.9599,"MEAN_ANOMALY":31.0168,"EPHEMERIS_TYPE":0,"CLASSIFICATION_TYPE":"U","NORAD_CAT_ID":19120,"ELEMENT_SET_NO":999,"REV_AT_EPOCH":95890,"BSTAR":9.9421904e-5,"MEAN_MOTION_DOT":1.62e-6,"MEAN_MOTION_DDOT":0},{"OBJECT_NAME":"COSMOS 1953","OBJECT_ID":"1988-050A","EPOCH":"2026-03-13T06:59:51.469152","MEAN_MOTION":15.28592151,"ECCENTRICITY":0.00125597,"INCLINATION":82.5104,"RA_OF_ASC_NODE":154.6253,"ARG_OF_PERICENTER":111.3234,"MEAN_ANOMALY":248.9348,"EPHEMERIS_TYPE":0,"CLASSIFICATION_TYPE":"U","NORAD_CAT_ID":19210,"ELEMENT_SET_NO":999,"REV_AT_EPOCH":3833,"BSTAR":0.00028999379,"MEAN_MOTION_DOT":8.115e-5,"MEAN_MOTION_DDOT":0}]
