SL-14 R/B               
1 16496U 86006B   26072.49106216  .00000850  00000+0  87878-4 0  9996
2 16496  82.5236 256.1584 0075064 259.9358  99.3384 14.86821156149774
COSMOS 1743             
1 16719U 86034A   26072.42977988  .00036558  00000+0  47127-3 0  9996
2 16719  82.5293  69.9044 0001575 255.5119 104.5962 15.58840822180833
SL-14 R/B               
1 16792U 86046B   26072.44449586  .00000552  00000+0  60769-4 0  9993
2 16792  82.4782  76.6326 0022216 212.3848 147.6007 14.85594396126962
SL-14 R/B               
1 16882U 86055B   26072.59401692  .00000493  00000+0  53995-4 0  9992
2 16882  82.5194 123.0043 0017866 323.1063 201.7881 14.85646556119946
AJISAI (EGS)            
1 16908U 86061A   26072.58978535 -.00000096  00000+0  94091-5 0  9995
2 16908  50.0081  81.3542 0011280 297.0598 219.9554 12.44515656468489
SL-14 R/B               
1 17567U 87024B   26072.47652631  .00000554  00000+0  60351-4 0  9990
2 17567  82.5245  89.2034 0016778 246.2870 113.6587 14.86136139 88692
COSMOS 1833             
1 17589U 87027A   26072.61212875 -.00000196  00000+0 -79239-4 0  9994
2 17589  70.9214 317.7755 0024068 208.9899 150.9887 14.13053773 10873
SL-16 R/B               
1 17590U 87027B   26072.29209471  .00000040  00000+0  43763-4 0  9997
2 17590  70.9994 268.9033 0003218 134.6822 225.4565 14.17166575 15854
SL-14 R/B               
1 17912U 87038B   26072.60817905  .00000507  00000+0  55939-4 0  9995
2 17912  82.4994 293.1160 0019996 147.9188 212.3250 14.85373134 79811
COSMOS 1844             
1 17973U 87041A   26072.28956426 -.00000120  00000+0 -36950-4 0  9997
2 17973  70.9002  26.5819 0030215  12.5342 347.6524 14.14551520  4098
SL-14 R/B               
1 18153U 87055B   26072.24763471  .00000603  00000+0  66647-4 0  9995
2 18153  82.5031 345.6792 0020847   6.2682 353.8791 14.85634056 70465
COSMOS 1867             
1 18187U 87060A   26072.63296332 -.00000019  00000+0  30625-4 0  9997
2 18187  65.0106 295.6626 0014538 278.8717  81.0721 14.31503732 20507
SL-14 R/B               
1 18749U 88001B   26072.31055613  .00000656  00000+0  73050-4 0  9992
2 18749  82.5157 191.9553 0017047 222.9540 137.0346 14.85532783 42562
COSMOS 1933             
1 18958U 88020A   26072.48152326  .00005255  00000+0  25686-3 0  9993
2 18958  82.5105 247.1594 0004230 169.6432 190.4890 15.18023949 50802
SL-3 R/B                
1 19046U 88032B   26072.55094809  .00006484  00000+0  30222-3 0  9991
2 19046  97.5195  55.7882 0024733 217.2349 142.7172 15.19959874 52694
SL-16 R/B               
1 19120U 88039B   26072.36251505  .00000162  00000+0  99422-4 0  9993
2 19120  71.0138  60.7806 0022967 328.9599  31.0168 14.19616171958900
COSMOS 1953             
1 19210U 88050A   26072.29156793  .00008115  00000+0  28999-3 0  9997
2 19210  82.5104 154.6253 0012559 111.3234 248.9348 15.28592151 38332
